provider,postcode,city,address,verizon_nodename,lat,lon
Verizon,94110,ARCUEIL,18 RUE BERTHOLLET,PARIS PA4 (FRA001T1),48.8042647,2.3296633
Verizon,94110,ARCUEIL,4 RUE BERTHOLLET,PARIS PA4 (FRA001T1),48.8034851,2.3320898
Verizon,93300,AUBERVILLIERS,10 RUE WALDECK ROCHET,PARIS PA4 (FRA001T1),48.9101293,2.3681986
Verizon,93300,AUBERVILLIERS,10 AVENUE WALDRECK ROCHET,PARIS PA4 (FRA001T1),48.9139653,2.3680156
Verizon,93300,AUBERVILLIERS,153 AVENUE JEAN JAURES,PARIS PA4 (FRA001T1),48.9093153,2.3973157
Verizon,93300,AUBERVILLIERS,45 AVENUE VICTOR HUGO,PARIS PA4 (FRA001T1),48.9021181,2.3695012
Verizon,93300,AUBERVILLIERS,45 AVENUE VICTOR HUGO BAT 254-ZONE EMGP POP REFERENCE IS FRA232C2,PARIS PA4 (FRA001T1),48.912259,2.384049
Verizon,92270,BOIS COLOMBES,60 AVENUE DE L EUROPE,PARIS PA4 (FRA001T1),48.9068624,2.2608679
Verizon,33300,BORDEAUX,33 RUE DU VERGNE,PARIS PA4 (FRA001T1),44.8911194,-0.5611355
Verizon,33000,BORDEAUX,RUE DU DOCTEUR GABRIEL PERI,BORDEAUX NETCENTER (FRA458C1),44.8901045,-0.5575859
Verizon,92100,BOULOGNE BILLANCOURT,1 QUAI DU POINT DU JOUR,PARIS PA4 (FRA001T1),48.8339709,2.2610514
Verizon,92100,BOULOGNE BILLANCOURT,127 RUE D AGUESSEAU,PARIS PA4 (FRA001T1),48.8379472,2.2382425
Verizon,92100,BOULOGNE BILLANCOURT,131 RUE D AGUESSEAU,PARIS PA4 (FRA001T1),48.8378053,2.2382433
Verizon,92100,BOULOGNE BILLANCOURT,39 RUE DE LA SAUSSIERE,PARIS PA4 (FRA001T1),48.8374799,2.2406037
Verizon,92100,BOULOGNE BILLANCOURT,4 PLACE DES AILES,PARIS PA4 (FRA001T1),48.8323084,2.2352003
Verizon,92100,BOULOGNE BILLANCOURT,65 QUAI GEORGES GORSE,PARIS PA4 (FRA001T1),48.8260019,2.2336198
Verizon,92100,BOULOGNE BILLANCOURT,150 RUE GALLIENI,PARIS PA4 (FRA001T1),48.8360609,2.2354263
Verizon,94360,BRY SUR MARNE,2-4 AVENUE DES FRERES LUMIERE,PARIS PA4 (FRA001T1),48.8385298,2.5365709
Verizon,77600,BUSSY ST GEORGES,6BIS AVENUE GUTENBERG,PARIS PA4 (FRA001T1),48.8310349,2.7298851
Verizon,77600,BUSSY ST GEORGES,ALLEE DES BOIS DE BUSSY,PARIS PA4 (FRA001T1),48.8277725,2.7325911
Verizon,33610,CANEJAN,37 RUE THOMAS EDISON,PARIS PA4 (FRA001T1),44.7739773,-0.657613
Verizon,35135,CHANTEPIE,17BIS RUE DES LOGES BUILDING JUNON,MONTPELLIER (FRT007),48.089126,-1.618455
Verizon,94220,CHARENTON LE PONT,147 RUE DE PARIS,PARIS PA4 (FRA001T1),48.8263856,2.4056374
Verizon,86360,CHASSENEUIL DU POITOU,1 1 AVENUE DU FUTUROSCOPE AEROBASE 2. TELEPORT,BORDEAUX NETCENTER (FRA458C1),46.650703,0.374772
Verizon,86360,CHASSENEUIL DU POITOU,4 RUE BLAISE PASCAL,BORDEAUX NETCENTER (FRA458C1),46.662467,0.3603322
Verizon,92320,CHATILLON,20 RUE DE L AVENIR,PARIS PA4 (FRA001T1),48.8099543,2.3008216
Verizon,92320,CHATILLON,6 RUE ANDRE GIDE,PARIS PA4 (FRA001T1),48.8106407,2.2997187
Verizon,77700,CHESSY,PARC D' ATTRACTION,PARIS PA4 (FRA001T1),48.8784616,2.7657959
Verizon,38121,CHONAS L AMBALLAN,ZONE ARTISANALE LE GRAND CHAMP,LYON (LYON),45.460615,4.811974
Verizon,92110,CLICHY,57-59 RUE HENRI BARBUSSE,PARIS PA4 (FRA001T1),48.899311,2.303953
Verizon,92110,CLICHY,92-98 BOULEVARD VICTOR HUGO,PARIS PA4 (FRA001T1),48.9011235,2.3177635
Verizon,92110,CLICHY,14 RUE JEANNE D ASNIERES,PARIS PA4 (FRA001T1),48.9012357,2.2967846
Verizon,92110,CLICHY,7-9 RUE PETIT,PARIS PA4 (FRA001T1),48.8996786,2.2962361
Verizon,77090,COLLEGIEN,1 ALLEE DU CLOS DES CHARMES,PARIS PA4 (FRA001T1),48.8283889,2.6783902
Verizon,77090,COLLEGIEN,35 ALLEE DU CLOS DES CHARMES,PARIS PA4 (FRA001T1),48.8303613,2.6724877
Verizon,92400,COURBEVOIE,1 PLACE DES SAISONS BUILDING FIRST,PARIS PA4 (FRA001T1),48.900552,2.25929
Verizon,92400,COURBEVOIE,1 PLACE VICTOR HUGO,PARIS PA4 (FRA001T1),48.8921103,2.2535798
Verizon,92400,COURBEVOIE,16 CB21 PLACE DE L' IRIS,PARIS PA4 (FRA001T1),48.8890389,2.2493789
Verizon,92400,COURBEVOIE,170 RUE HENRI REGNAULT,PARIS PA4 (FRA001T1),48.8936038,2.2428593
Verizon,92400,COURBEVOIE,20 AVENUE ANDRE PROTHIN,PARIS PA4 (FRA001T1),48.891884,2.2442652
Verizon,92400,COURBEVOIE,20 PLACE DE SEINE,PARIS PA4 (FRA001T1),48.8894898,2.2540849
Verizon,92400,COURBEVOIE,25 QUAI PAUL DOUMER,PARIS PA4 (FRA001T1),48.8914162,2.2577876
Verizon,92400,COURBEVOIE,6 RUE D' ATHENES,PARIS PA4 (FRA001T1),48.9257669,2.2451806
Verizon,92400,COURBEVOIE,6-8 ALLEE DE L ARCHE,PARIS PA4 (FRA001T1),48.8951966,2.2368502
Verizon,92400,COURBEVOIE,7-11 ALLEE DE L' ARCHE TOUR EGEE,PARIS PA4 (FRA001T1),48.8950126,2.238045
Verizon,92400,COURBEVOIE,9 RUE MOULIN DES BRUYERES LE CRISTALLIN,PARIS PA4 (FRA001T1),48.900552,2.25929
Verizon,92400,COURBEVOIE,9-11 ALLEE DE L ARCHE,PARIS PA4 (FRA001T1),48.8950126,2.238045
Verizon,92400,COURBEVOIE,90-102 ESPLANADE GENERAL DE GAULLE,PARIS PA4 (FRA001T1),48.8906312,2.2432261
Verizon,92400,COURBEVOIE,QUAI PAUL DOUMER RUE DE L' ABREUVOIR,PARIS PA4 (FRA001T1),48.8910037,2.2551345
Verizon,92400,COURBEVOIE,100-110 ESPLANADE GENERAL DE GAULLE,PARIS PA4 (FRA001T1),48.8914361,2.2444025
Verizon,92400,COURBEVOIE,124 124 BOULEVARD DE VERDUN RUE DU MOULIN DES BRUYERES,PARIS PA4 (FRA001T1),49.1043127,5.3815653
Verizon,92400,COURBEVOIE,130-136 BOULEVARD DE VERDUN,PARIS PA4 (FRA001T1),48.9041905,2.2571322
Verizon,92400,COURBEVOIE,19-29 RUE DU CAPITAINE GUYNEMER,PARIS PA4 (FRA001T1),48.8954249,2.2427655
Verizon,92400,COURBEVOIE,2 6 PLACE DE LA COUPOLE LA DEFENSE,PARIS PA4 (FRA001T1),48.892263,2.2425875
Verizon,92400,COURBEVOIE,61 RUE HENRI REGNAULT BUILDING EXALTIS,PARIS PA4 (FRA001T1),48.900552,2.25929
Verizon,94000,CRETEIL,81 BOULEVARD JEAN BAPTISTE OUDRY,PARIS PA4 (FRA001T1),48.7719867,2.4622426
Verizon,77183,CROISSY BEAUBOURG,33 RUE DE VIELLES VIGNES,PARIS PA4 (FRA001T1),48.817491,2.6420028
Verizon,77183,CROISSY BEAUBOURG,4 RUE DES VIEILLES VIGNES,PARIS PA4 (FRA001T1),48.8221614,2.6430292
Verizon,59170,CROIX,12 RUE CENTENAIRE,LILLE (FRL02M1),50.6728647,3.1494417
Verizon,21000,DIJON,13 RUE DU JARDIN DES PLANTES,DIJON RAINES (POI) (FRA197),47.3191216,5.0285854
Verizon,28100,DREUX,11 RUE ETHE VIRTON,PARIS PA4 (FRA001T1),48.7420317,1.378879
Verizon,28100,DREUX,2 RUE DES OSMEAUX ZI DES CHATELETS,PARIS PA4 (FRA001T1),48.7485366,1.3968742
Verizon,28100,DREUX,4 RUE DOGUEREAU,PARIS PA4 (FRA001T1),48.7348541,1.3689932
Verizon,28100,DREUX,RUE ETHE VIRTON,PARIS PA4 (FRA001T1),48.743265,1.381395
Verizon,78990,ELANCOURT,2 AVENUE GAY LUSSAC,PARIS PA4 (FRA001T1),48.7906406,1.9741556
Verizon,77184,EMERAINVILLE,12 RUE VLADIMIR JANKELEVITCH,PARIS PA4 (FRA001T1),48.829029,2.5875597
Verizon,28190,FONTAINE LA GUYON,24 RUE PASTEUR,PARIS PA4 (FRA001T1),48.4753566,1.3212861
Verizon,94120,FONTENAY SOUS BOIS,112 AVENUE DU MARECHAL DE LATTRE DE TASSIGNY,PARIS PA4 (FRA001T1),48.8568212,2.4930696
Verizon,94120,FONTENAY SOUS BOIS,44-48 RUE ROGER SALENGRO,PARIS PA4 (FRA001T1),48.8509906,2.4878793
Verizon,78280,GUYANCOURT,83 BOULEVARD DES CHENES,PARIS PA4 (FRA001T1),48.7900141,2.0516087
Verizon,67500,HAGUENAU,48-54 ROUTE DE SOUFFLENHEIM,STRASBOURG (STR1) (FRS02),48.8261311,7.8077152
Verizon,92130,ISSY LES MOULINEAUX,1 RUE CAMILLE DESMOULINS,PARIS PA4 (FRA001T1),48.8310911,2.2668208
Verizon,92130,ISSY LES MOULINEAUX,11-13 RUE CAMILLE DESMOULINS,PARIS PA4 (FRA001T1),48.8301524,2.2656138
Verizon,92130,ISSY LES MOULINEAUX,27-33 RUE DU COLONEL PIERRE AVIA,PARIS PA4 (FRA001T1),48.8291744,2.2749846
Verizon,92130,ISSY LES MOULINEAUX,3 RUE GASTON ET RENE CAUDRON,PARIS PA4 (FRA001T1),48.8294309,2.2652811
Verizon,92130,ISSY LES MOULINEAUX,37-45 QUAI DU PRESIDENT ROOSEVELT,PARIS PA4 (FRA001T1),48.8339038,2.2647331
Verizon,92130,ISSY LES MOULINEAUX,65 RUE CAMILLES DESMOULIN,PARIS PA4 (FRA001T1),48.8267117,2.2601106
Verizon,92130,ISSY LES MOULINEAUX,8 RUE ROUGET DE LISLE,PARIS PA4 (FRA001T1),48.8290737,2.263771
Verizon,92130,ISSY LES MOULINEAUX,"DES, 22 12 BIS MARCEAU RUE DU GOUVERNEUR EBOUE BOULEVARD VOISIN",PARIS PA4 (FRA001T1),48.8278351,2.271152
Verizon,94200,IVRY SUR SEINE,16 QUAI MARCEL BOYER,PARIS PA4 (FRA001T1),48.8237039,2.3894762
Verizon,94200,IVRY SUR SEINE,35 RUE SAINT JUST,PARIS PA4 (FRA001T1),48.8100594,2.3883025
Verizon,94200,IVRY SUR SEINE,11-15 RUE GALILEE,PARIS PA4 (FRA001T1),48.8152721,2.4028416
Verizon,93120,LA COURNEUVE,1-3 RUE RATEAU,PARIS PA4 (FRA001T1),48.9249074,2.4029996
Verizon,92800,LA DEFENSE,LES COLLINES DE L'ARCHE,PARIS PA4 (FRA001T1),48.89323,2.2370009
Verizon,92250,LA GARENNE COLOMBES,77 BOULEVARD DE LA REPUBLIQUE,PARIS PA4 (FRA001T1),48.9071702,2.2416471
Verizon,93210,LA PLAINE ST DENIS,132 AVENUE DU PRESIDENT WILSON,PARIS PA4 (FRA001T1),48.9091913,2.3587216
Verizon,78340,LES CLAYES SOUS BOIS,RUE JEAN JAURES BUILDING F4,PARIS PA4 (FRA001T1),48.8258402,1.9816706
Verizon,92300,LEVALLOIS PERRET,1 RUE DU PARC,PARIS PA4 (FRA001T1),48.896155,2.285028
Verizon,92300,LEVALLOIS PERRET,110-114 RUE JULES GUESDE,PARIS PA4 (FRA001T1),48.8967773,2.2897477
Verizon,92300,LEVALLOIS PERRET,14-16 RUE CLEMENT BAYARD,PARIS PA4 (FRA001T1),48.8985349,2.2837394
Verizon,92300,LEVALLOIS PERRET,144-174 RUE VICTOR HUGO,PARIS PA4 (FRA001T1),48.8996055,2.2935773
Verizon,92300,LEVALLOIS PERRET,16 RUE PAUL VAILLANT COUTURIER,PARIS PA4 (FRA001T1),48.8946817,2.28084
Verizon,92300,LEVALLOIS PERRET,20 AVENUE GEORGES POMPIDOU,PARIS PA4 (FRA001T1),48.898118,2.2807831
Verizon,92300,LEVALLOIS PERRET,44 AVENUE GEOGES POMPIDOU IM WILSON,PARIS PA4 (FRA001T1),48.893217,2.287864
Verizon,92300,LEVALLOIS PERRET,77 RUE ANATOLE FRANCE,PARIS PA4 (FRA001T1),48.892432,2.2843645
Verizon,92300,LEVALLOIS PERRET,12-14 RUE D ALSACE,PARIS PA4 (FRA001T1),48.8902196,2.2940676
Verizon,92300,LEVALLOIS PERRET,157-159 RUE ANATOLE FRANCE,PARIS PA4 (FRA001T1),48.898221,2.278638
Verizon,77564,LIEUSAINT,100 RUE ALFRED KASTLER,PARIS PA4 (FRA001T1),48.6222114,2.5517451
Verizon,59000,LILLE,11 PARVIS DE ROTTERDAM TOUR DE LILLE EURALILLE,LILLE (FRL02M1),50.6138111,3.0423599
Verizon,77185,LOGNES,80 BOULEVARD DU MANDINET,PARIS PA4 (FRA001T1),48.8388147,2.6273477
Verizon,77185,LOGNES,4 RUE CHARLES GOUNOD,PARIS PA4 (FRA001T1),48.8352863,2.6396946
Verizon,77185,LOGNES,91 2 COURS DES PETITES ECURIES,PARIS PA4 (FRA001T1),48.8366416,2.63261
Verizon,77185,LOGNES,93 COURS DES PETITES ECURIES,PARIS PA4 (FRA001T1),48.8368971,2.641417
Verizon,59120,LOOS,1 RUE DE LONDRES,LILLE (FRL02M1),50.6177982,3.0228495
Verizon,69007,LYON,12 RUE JONAS SALK,LYON (LYON),45.7295815,4.822847
Verizon,69007,LYON,2 AVENUE DU PONT PASTEUR,LYON (LYON),45.7321536,4.8221837
Verizon,69003,LYON,66-70 RUE DE LA VILLETTE,LYON (LYON),45.7582878,4.8613232
Verizon,69003,LYON,129 RUE SERVIENT,LYON (LYON),45.7610475,4.8537629
Verizon,78114,MAGNY LES HAMEAUX,1 RUE PABLO PICASSO,PARIS PA4 (FRA001T1),48.7262742,2.0789673
Verizon,28300,MAINVILLIERS,63 RUE DU CHATEAU D EAU,PARIS PA4 (FRA001T1),48.4511601,1.4457085
Verizon,91460,MARCOUSSIS,ROUTE DE NOZAY,PARIS PA4 (FRA001T1),48.6574664,2.2085801
Verizon,91460,MARCOUSSIS,ROUTE DE NOZAY,PARIS PA4 (FRA001T1),48.6574664,2.2085801
Verizon,59700,MARCQ EN BAROEUL,344 AVENUE DE LA MARNE PARC EUROPE,PARIS PA4 (FRA001T1),50.670368,3.096267
Verizon,13002,MARSEILLE,13 QUAI DE LA JOLIETTE,MARSEILLES (MRS1) (MARS),43.3020428,5.3649086
Verizon,13015,MARSEILLE,5 AVENUE PAUL HEROULT,MARSEILLES (MRS1) (MARS),43.3402005,5.3661874
Verizon,13002,MARSEILLE,61 BOULEVARD DES DAMES,MARSEILLES (MRS1) (MARS),43.3031621,5.3654862
Verizon,13015,MARSEILLE,5 AVENUE DE LA BAUXITE,MARSEILLES (MRS1) (MARS),43.3393105,5.3670817
Verizon,91300,MASSY,1 SQUARE JOHN H PATTERSON,PARIS PA4 (FRA001T1),48.7263396,2.2671478
Verizon,91300,MASSY,25 AVENUE CARNOT,PARIS PA4 (FRA001T1),48.7267723,2.2635623
Verizon,91300,MASSY,6 RUE GALVANI,PARIS PA4 (FRA001T1),48.7220257,2.2703925
Verizon,91348,MASSY,6-8 RUE AMPERE,PARIS PA4 (FRA001T1),48.7193127,2.2651825
Verizon,91300,MASSY,127-129 AVENUE DE PARIS BATIM,PARIS PA4 (FRA001T1),48.730756,2.27137
Verizon,91300,MASSY,15 RUE AMPERE,PARIS PA4 (FRA001T1),48.7202642,2.2691468
Verizon,33700,MERIGNAC,85 AVENUE DU PRESIDENT KENNEDY,BORDEAUX MERIADECK (POI) (FRA219),44.835574,-0.685101
Verizon,38240,MEYLAN,9BIS CHEMIN DU VIEUX CHENE TECHNIPARC,GRENOBLE (DATA) (FTR008),45.209786,5.777628
Verizon,59370,MONS EN BAROEUL,58 AVENUE LEON BLUM,LILLE (FRL02M1),50.6500381,3.1089297
Verizon,34000,MONTPELLIER,1 ROND POINT BENJAMIN FRANKLIN,MONTPELLIER (FRT007),43.6192706,3.9109987
Verizon,34000,MONTPELLIER,1 RUE DE LA VIEILLE POSTE,MONTPELLIER (FRT007),43.6104602,3.899993
Verizon,93100,MONTREUIL,33-41 RUE DE VALMY,PARIS PA4 (FRA001T1),48.8505355,2.4166478
Verizon,92000,NANTERRE,15 RUE DES SORINS,PARIS PA4 (FRA001T1),48.8965597,2.2292287
Verizon,92000,NANTERRE,2 RUE DE L EGALITE,PARIS PA4 (FRA001T1),48.8893279,2.2112299
Verizon,92000,NANTERRE,24-32 BOULEVARD JULES MANSARD,PARIS PA4 (FRA001T1),48.8995075,2.2107548
Verizon,92000,NANTERRE,3 BOULEVARD DES BOUVETS,PARIS PA4 (FRA001T1),48.8978507,2.2212423
Verizon,92000,NANTERRE,32 RUE DES TROIS FONTANOTS,PARIS PA4 (FRA001T1),48.896126,2.2205696
Verizon,92000,NANTERRE,91-93 AVENUE FRANCOIS ARAGO,PARIS PA4 (FRA001T1),48.9000382,2.2229515
Verizon,92000,NANTERRE,"LE CAPITOLE, 55 AVENUE DES CHAMPS PIERREUX",PARIS PA4 (FRA001T1),48.8876968,2.2151266
Verizon,92000,NANTERRE,41 BOULEVARD DES BOUVETS,PARIS PA4 (FRA001T1),48.8960082,2.2271196
Verizon,92000,NANTERRE,79-103 AVENUE FRANCOIS ARAGO,PARIS PA4 (FRA001T1),48.9009887,2.2244068
Verizon,92000,NANTERRE,"LE CAPITOLE, 55 AVENUE DES CHAMPS PIERREUX",PARIS PA4 (FRA001T1),48.8876968,2.2151266
Verizon,92200,NEUILLY SUR SEINE,112 AVENUE CHARLES DE GAULLE,PARIS PA4 (FRA001T1),48.8826415,2.2682622
Verizon,92200,NEUILLY SUR SEINE,115-123 AVENUE CHARLES DE GAULLE,PARIS PA4 (FRA001T1),48.8814625,2.2685772
Verizon,92200,NEUILLY SUR SEINE,120 AVENUE CHARLES DE GAULLE,PARIS PA4 (FRA001T1),48.8831161,2.2674862
Verizon,92521,NEUILLY SUR SEINE,127 AVENUE CHARLES DE GAULLE,PARIS PA4 (FRA001T1),48.8818301,2.2674181
Verizon,92200,NEUILLY SUR SEINE,131 AVENUE CHARLES DE GAULLE,PARIS PA4 (FRA001T1),48.8820389,2.267103
Verizon,92200,NEUILLY SUR SEINE,159 AVENUE ACHILLE PERETTI,PARIS PA4 (FRA001T1),48.8849419,2.2664898
Verizon,92200,NEUILLY SUR SEINE,185 AVENUE CHARLES DE GAULLE,PARIS PA4 (FRA001T1),48.8840163,2.2617628
Verizon,92200,NEUILLY SUR SEINE,20-26 BOULEVARD DU PARC,PARIS PA4 (FRA001T1),48.8935939,2.2645668
Verizon,92200,NEUILLY SUR SEINE,22 RUE JACQUES DULUD,PARIS PA4 (FRA001T1),48.8807216,2.2707823
Verizon,92200,NEUILLY SUR SEINE,225 AVENUE CHARLES DE GAULLE,PARIS PA4 (FRA001T1),48.8855072,2.2567807
Verizon,92200,NEUILLY SUR SEINE,28-34 BOULEVARD DU PARC,PARIS PA4 (FRA001T1),48.8930007,2.2635891
Verizon,92200,NEUILLY SUR SEINE,46 RUE JACQUES DULUD,PARIS PA4 (FRA001T1),48.8811025,2.267569
Verizon,92200,NEUILLY SUR SEINE,5 RUE DU COMNANDANT PILOT,PARIS PA4 (FRA001T1),48.8807093,2.2770809
Verizon,92200,NEUILLY SUR SEINE,89 AVENUE CHARLES DE GAULLE,PARIS PA4 (FRA001T1),48.8805188,2.2725534
Verizon,92200,NEUILLY-SUR-SEINE,176 AVENUE CHARLES DE GAULLE,PARIS PA4 (FRA001T1),48.8855585,2.2591574
Verizon,93160,NOISY LE GRAND,5 RUE DU CENTRE,PARIS PA4 (FRA001T1),48.8384803,2.5464384
Verizon,93160,NOISY LE GRAND,9 ALLEE DU BATAILLON HILDEVERT,PARIS PA4 (FRA001T1),48.8433276,2.5773263
Verizon,93160,NOISY-LE-GRAND,1 PLACE JEAN BAPTISTE CLEMENT,PARIS PA4 (FRA001T1),48.8413629,2.5461681
Verizon,93160,NOISY-LE-GRAND,12-14 RUE DU CENTRE IMM LE VENDOME,PARIS PA4 (FRA001T1),48.848579,2.55261
Verizon,93500,PANTIN,26-32 RUE AUGER,PARIS PA4 (FRA001T1),48.8929565,2.4005312
Verizon,93500,PANTIN,110 BIS AVENUE DU GENERAL LECLERC,PARIS PA4 (FRA001T1),48.9017753,2.4176397
Verizon,75008,PARIS,1 RUE EULER,PARIS PA4 (FRA001T1),48.8709316,2.2993854
Verizon,75015,PARIS,1 SQUARE BELA BARTOK,PARIS PA4 (FRA001T1),48.8507113,2.2861207
Verizon,75014,PARIS,1-3 RUE DU DEPART,PARIS PA4 (FRA001T1),48.8432425,2.3244627
Verizon,75008,PARIS,1-3 RUE PAUL CEZANNE,PARIS PA4 (FRA001T1),48.8743418,2.3089499
Verizon,75008,PARIS,10 AVENUE HOCHE,PARIS PA4 (FRA001T1),48.8772501,2.3026249
Verizon,75009,PARIS,10 BOULEVARD HAUSSMANN,PARIS PA4 (FRA001T1),48.8724334,2.3381388
Verizon,75010,PARIS,10 RUE BEAUREPAIRE,PARIS PA4 (FRA001T1),48.8695907,2.3637464
Verizon,75009,PARIS,10 RUE HENNER,PARIS PA4 (FRA001T1),48.8803213,2.3330933
Verizon,75015,PARIS,100 AVENUE DE SUFFREN,PARIS PA4 (FRA001T1),48.8498429,2.3026803
Verizon,75009,PARIS,102 RUE DE PROVENCE 50 RUE DE CAUMARTIN,PARIS PA4 (FRA001T1),48.8742792,2.328468
Verizon,75008,PARIS,103 AVENUE DES CHAMPS ELYSEES,PARIS PA4 (FRA001T1),48.871961,2.2997267
Verizon,75009,PARIS,103 BOULEVARD HAUSSMANN,PARIS PA4 (FRA001T1),48.8747405,2.3174967
Verizon,75008,PARIS,105 RUE DU FAUBOURG SAINT HONORE,PARIS PA4 (FRA001T1),48.8725694,2.3112295
Verizon,75009,PARIS,107 RUE DE PROVENCE,PARIS PA4 (FRA001T1),48.8741647,2.3293741
Verizon,75018,PARIS,11 BOULEVARD NEY,PARIS PA4 (FRA001T1),48.8982845,2.3653812
Verizon,75008,PARIS,11 RUE D ARGENSON,PARIS (2ND) (FRC77),48.8747722,2.316426
Verizon,75009,PARIS,11 RUE SAINT GEORGES,PARIS PA4 (FRA001T1),48.8752712,2.3370932
Verizon,75009,PARIS,11 RUE SCRIBE,PARIS PA4 (FRA001T1),48.872301,2.330732
Verizon,75002,PARIS,11-15 PLACE DE LA BOURSE 22 RUE VIVIENNE,PARIS PA4 (FRA001T1),48.8687708,2.3402725
Verizon,75012,PARIS,111-113 RUE DE REUILLY,PARIS PA4 (FRA001T1),48.8425217,2.3938865
Verizon,75002,PARIS,111-119 RUE REAUMUR,PARIS PA4 (FRA001T1),48.8679717,2.3426504
Verizon,75012,PARIS,112 AVENUE DAUMESNIL,PARIS PA4 (FRA001T1),48.8426227,2.384305
Verizon,75002,PARIS,115-121 RUE MONTMARTRE,PARIS PA4 (FRA001T1),48.8689341,2.3427565
Verizon,75016,PARIS,116 AVENUE DU PRESIDENT KENNEDY,PARIS PA4 (FRA001T1),48.8525273,2.2782363
Verizon,75009,PARIS,12 BOULEVARD DE LA MADELEINE,PARIS PA4 (FRA001T1),48.8701423,2.3262643
Verizon,75008,PARIS,12 RUE FRANCOIS PREMIER,PARIS PA4 (FRA001T1),48.8603924,2.3323163
Verizon,75009,PARIS,12 RUE HALEVY,PARIS PA4 (FRA001T1),48.872272,2.3333437
Verizon,75008,PARIS,12-14 ROND POINT DES CHAMPS ELYSEES,PARIS PA4 (FRA001T1),48.8696706,2.309642
Verizon,75008,PARIS,121 AVENUE DES CHAMPS ELYSEES,PARIS PA4 (FRA001T1),48.8725598,2.2984155
Verizon,75015,PARIS,123 BOULEVARD DE GRENELLE,PARIS PA4 (FRA001T1),48.8488648,2.2993213
Verizon,75002,PARIS,129 RUE MONTMARTRE,PARIS PA4 (FRA001T1),48.8692293,2.3429992
Verizon,75002,PARIS,13 RUE DE LA PAIX,PARIS PA4 (FRA001T1),48.86937,2.3309734
Verizon,75008,PARIS,13 RUE LA BOETIE,PARIS PA4 (FRA001T1),48.8740455,2.3180142
Verizon,75019,PARIS,134-140 RUE D AUBERVILLIERS,PARIS PA4 (FRA001T1),48.892548,2.36945
Verizon,75015,PARIS,136 AVENUE DE SUFFREN,PARIS PA4 (FRA001T1),48.8473625,2.3063199
Verizon,75012,PARIS,139 AVENUE DAUMESNIL,PARIS PA4 (FRA001T1),48.8425605,2.38516
Verizon,75008,PARIS,14 AVENUE MONTAIGNE,PARIS PA4 (FRA001T1),48.8658961,2.3046182
Verizon,75001,PARIS,14 PLACE VENDOME OU 21 PLACE DU MARCHE SAINT HONORE,PARIS PA4 (FRA001T1),48.8668474,2.3308419
Verizon,75002,PARIS,14 RUE DU 4 SEPTEMBRE,PARIS PA4 (FRA001T1),48.8696359,2.3370939
Verizon,75008,PARIS,14 RUE DU FAUBOURG SAINT HONORE,PARIS PA4 (FRA001T1),48.8687436,2.3223734
Verizon,75015,PARIS,141 RUE DE JAVEL,PARIS PA4 (FRA001T1),48.8428086,2.2899289
Verizon,75007,PARIS,148 RUE DE L UNIVERSITE,PARIS PA4 (FRA001T1),48.8612133,2.3091975
Verizon,75007,PARIS,15 RUE COGNACQ JAY,PARIS PA4 (FRA001T1),48.8616572,2.3034825
Verizon,75007,PARIS,154 RUE DE L UNIVERSITE,PARIS PA4 (FRA001T1),48.8613559,2.3078938
Verizon,75008,PARIS,16 AVENUE GEORGE V,PARIS PA4 (FRA001T1),48.8665516,2.301705
Verizon,75014,PARIS,16 AVENUE JEAN MOULIN,PARIS PA4 (FRA001T1),48.8273968,2.325135
Verizon,75008,PARIS,16 AVENUE MATIGNON,PARIS PA4 (FRA001T1),48.8707057,2.3138918
Verizon,75002,PARIS,16 RUE BACHAUMONT,PARIS PA4 (FRA001T1),48.8662679,2.3452462
Verizon,75008,PARIS,16 RUE D AGUESSEAU,PARIS PA4 (FRA001T1),48.870403,2.3199891
Verizon,75008,PARIS,16 RUE D ARTOIS,PARIS PA4 (FRA001T1),48.8731005,2.3079641
Verizon,75002,PARIS,16 RUE VOLNEY,PARIS PA4 (FRA001T1),48.8698208,2.3303825
Verizon,75002,PARIS,16-18 RUE DU 4 SEPTEMBRE,PARIS PA4 (FRA001T1),48.8697197,2.3364625
Verizon,75009,PARIS,16-20 BOULEVARD DES ITALIENS RUE LAFFITTE RUE TAITBOUT,PARIS PA4 (FRA001T1),48.874737,2.3352233
Verizon,75002,PARIS,17 BOULEVARD DES CAPUCINES 22 RUE DAUNOU,PARIS PA4 (FRA001T1),48.8700263,2.3305623
Verizon,75008,PARIS,17 RUE DE MARIGNAN,PARIS PA4 (FRA001T1),48.8687629,2.3059083
Verizon,75009,PARIS,17 SQUARE EDOUARD VII,PARIS PA4 (FRA001T1),48.8710611,2.3287556
Verizon,75008,PARIS,18 AVENUE MATIGNON,PARIS PA4 (FRA001T1),48.8710085,2.3137481
Verizon,75012,PARIS,18 QUAI DE LA RAPEE,PARIS PA4 (FRA001T1),48.8403022,2.3746887
Verizon,75008,PARIS,18 RUE DE LA PEPINIERE,PARIS PA4 (FRA001T1),48.8753286,2.3218176
Verizon,75008,PARIS,19 BOULEVARD MALESHERBES,PARIS PA4 (FRA001T1),48.87196,2.321543
Verizon,75001,PARIS,19 RUE DES CAPUCINES,PARIS PA4 (FRA001T1),48.8693466,2.3285456
Verizon,75015,PARIS,19-21 RUE DU COLONEL PIERRE AVIA,PARIS PA4 (FRA001T1),48.8304953,2.2768381
Verizon,75002,PARIS,19-21 RUE POISSONNIERE,PARIS PA4 (FRA001T1),48.8695696,2.3473431
Verizon,75012,PARIS,193 RUE DE BERCY TOUR GAMMA,PARIS PA4 (FRA001T1),48.8293647,2.4265406
Verizon,75013,PARIS,2 AVENUE PIERRE MENDES FRANCE,PARIS PA4 (FRA001T1),48.836572,2.371185
Verizon,75017,PARIS,2 PLACE DE LA PORTE MAILLOT,PARIS PA4 (FRA001T1),48.8794852,2.2834582
Verizon,75017,PARIS,2 RUE DE THANN,PARIS PA4 (FRA001T1),48.8809067,2.3093706
Verizon,75002,PARIS,2 RUE DU 4 SEPTEMBRE,PARIS PA4 (FRA001T1),48.8690659,2.3397848
Verizon,75017,PARIS,2 RUE FRAGONARD,PARIS PA4 (FRA001T1),48.8940774,2.3144573
Verizon,75009,PARIS,2 RUE SCRIBE,PARIS PA4 (FRA001T1),48.8708391,2.3303651
Verizon,75116,PARIS,2-4 RUE LOUIS DAVID,PARIS PA4 (FRA001T1),48.8620389,2.2816418
Verizon,75001,PARIS,20 PLACE VENDOME,PARIS PA4 (FRA001T1),48.8674741,2.3306687
Verizon,75002,PARIS,20 RUE DE LA PAIX,PARIS PA4 (FRA001T1),48.8696966,2.331873
Verizon,75008,PARIS,20 RUE DE LA VILLE L EVEQUE,PARIS PA4 (FRA001T1),48.8717811,2.3197619
Verizon,75008,PARIS,20 RUE QUENTIN BAUCHART,PARIS PA4 (FRA001T1),48.8703559,2.3020074
Verizon,75008,PARIS,21 BOULEVARD DE LA MADELEINE,PARIS PA4 (FRA001T1),48.8710235,2.3239963
Verizon,75008,PARIS,21 BOULEVARD HAUSSMANN,PARIS PA4 (FRA001T1),48.8724066,2.3344584
Verizon,75009,PARIS,21 RUE AUBER,PARIS PA4 (FRA001T1),48.8733496,2.3275677
Verizon,75008,PARIS,21 RUE BALZAC,PARIS PA4 (FRA001T1),48.8755016,2.3022827
Verizon,75116,PARIS,21 RUE LA PEROUSE,PARIS PA4 (FRA001T1),48.8703734,2.2936711
Verizon,75008,PARIS,21-23 RUE DE LA VILLE L EVEQUE,PARIS PA4 (FRA001T1),48.8717462,2.3196134
Verizon,75008,PARIS,21-23 RUE ROYALE,PARIS PA4 (FRA001T1),48.86885,2.3233839
Verizon,75008,PARIS,21-25 RUE BALZAC,PARIS PA4 (FRA001T1),48.8755529,2.3024509
Verizon,75116,PARIS,21BIS RUE LA PEROUSE,PARIS PA4 (FRA001T1),48.8703734,2.2936711
Verizon,75008,PARIS,22 BOULEVARD MALESHERBES,PARIS PA4 (FRA001T1),48.8726366,2.3215115
Verizon,75002,PARIS,22 RUE DES CAPUCINES,PARIS PA4 (FRA001T1),48.8695688,2.3288258
Verizon,75116,PARIS,23 RUE DE L AMIRAL D ESTAING,PARIS PA4 (FRA001T1),48.8677267,2.2927814
Verizon,75007,PARIS,23 RUE DE L UNIVERSITE,PARIS PA4 (FRA001T1),48.8574479,2.3285477
Verizon,75007,PARIS,24 RUE DE SEVRES,PARIS PA4 (FRA001T1),48.8510251,2.3244024
Verizon,75008,PARIS,24 RUE DU FAUBOURG SAINT HONORE,PARIS PA4 (FRA001T1),48.8690133,2.3217737
Verizon,75017,PARIS,241 BOULEVARD PEREIRE,PARIS PA4 (FRA001T1),48.8791053,2.286844
Verizon,75017,PARIS,247-255 BOULEVARD PEREIRE,PARIS PA4 (FRA001T1),48.8784697,2.286615
Verizon,75009,PARIS,25 RUE CHAPTAL,PARIS PA4 (FRA001T1),48.8808356,2.332193
Verizon,75008,PARIS,25 RUE DE MARIGNAN,PARIS PA4 (FRA001T1),48.8693775,2.3062844
Verizon,75015,PARIS,25-28 RUE DU DOCTEUR ROUX 209 RUE DE VAUGIRARD,PARIS PA4 (FRA001T1),48.8404469,2.3106829
Verizon,75008,PARIS,25-31 RUE DE LA PEPINIERE,PARIS PA4 (FRA001T1),48.8748883,2.3210118
Verizon,75017,PARIS,251 BOULEVARD PEREIRE,PARIS PA4 (FRA001T1),48.8788795,2.2864211
Verizon,75008,PARIS,26 AVENUE DES CHAMPS ELYSEES,PARIS PA4 (FRA001T1),48.8694472,2.3086818
Verizon,75015,PARIS,26 AVENUE EMILE ZOLA,PARIS PA4 (FRA001T1),48.8461737,2.2805264
Verizon,75001,PARIS,26 PLACE VENDOME,PARIS PA4 (FRA001T1),48.8680397,2.3302071
Verizon,75002,PARIS,26 RUE LOUIS LE GRAND,PARIS PA4 (FRA001T1),48.8702312,2.3339147
Verizon,75014,PARIS,261 BOULEVARD RASPAIL,PARIS PA4 (FRA001T1),48.8373431,2.3319528
Verizon,75008,PARIS,264 RUE DU FAUBOURG SAINT HONORE,PARIS PA4 (FRA001T1),48.8776405,2.2997418
Verizon,75008,PARIS,27 RUE CHATEAUBRIAND,PARIS PA4 (FRA001T1),48.8739063,2.3000692
Verizon,75001,PARIS,29 AVENUE DE L OPERA,PARIS PA4 (FRA001T1),48.8669525,2.3336404
Verizon,75017,PARIS,29 AVENUE MAC MAHON,PARIS PA4 (FRA001T1),48.8774752,2.2939211
Verizon,75002,PARIS,29 RUE DU LOUVRE,PARIS PA4 (FRA001T1),48.86602,2.343382
Verizon,75002,PARIS,29 RUE SAINT AUGUSTIN,PARIS PA4 (FRA001T1),48.8688322,2.3352042
Verizon,75015,PARIS,293 RUE LECOURBE,PARIS PA4 (FRA001T1),48.837915,2.2874546
Verizon,75008,PARIS,3 AVENUE DE FRIEDLAND,PARIS PA4 (FRA001T1),48.8745772,2.3044218
Verizon,75008,PARIS,3 AVENUE HOCHE,PARIS PA4 (FRA001T1),48.8774343,2.3047499
Verizon,75007,PARIS,3 AVENUE OCTAVE GREARD,PARIS PA4 (FRA001T1),48.8563586,2.2934386
Verizon,75008,PARIS,3 RUE LA BOETIE,PARIS PA4 (FRA001T1),48.8743257,2.319143
Verizon,75009,PARIS,3 RUE LA FAYETTE,PARIS PA4 (FRA001T1),48.8733461,2.3340489
Verizon,75002,PARIS,3-5 RUE D' ANTIN OU 10 RUE LOUIS LEGRAND,PARIS PA4 (FRA001T1),48.8675641,2.34399
Verizon,75008,PARIS,30 AVENUE HOCHE,PARIS PA4 (FRA001T1),48.8761959,2.2997266
Verizon,75001,PARIS,31 RUE DANIELLE CASANOVA,PARIS PA4 (FRA001T1),48.8681091,2.330904
Verizon,75015,PARIS,31-35 RUE DE LA FEDERATION,PARIS PA4 (FRA001T1),48.8545938,2.2932637
Verizon,75008,PARIS,32 RUE DE MONCEAU,PARIS PA4 (FRA001T1),48.8768868,2.3091203
Verizon,75008,PARIS,33 AVENUE HOCHE,PARIS PA4 (FRA001T1),48.8758369,2.3007765
Verizon,75017,PARIS,33 RUE PONCELET,PARIS PA4 (FRA001T1),48.8798773,2.2983333
Verizon,75008,PARIS,33-35 RUE BOISSY D ANGLAS,PARIS PA4 (FRA001T1),48.8697269,2.3222733
Verizon,75008,PARIS,34 AVENUE DE FRIEDLAND,PARIS PA4 (FRA001T1),48.8743188,2.298669
Verizon,75009,PARIS,35 BOULEVARD DES CAPUCINES,PARIS PA4 (FRA001T1),48.8699234,2.3298756
Verizon,75011,PARIS,36 RUE DU CHEMIN VERT,PARIS PA4 (FRA001T1),48.8584515,2.3739139
Verizon,75008,PARIS,37 AVENUE DES CHAMPS ELYSEES,PARIS PA4 (FRA001T1),48.8698457,2.3062666
Verizon,75007,PARIS,37 QUAI D ORSAY,PARIS PA4 (FRA001T1),48.862732,2.3156678
Verizon,75009,PARIS,37 RUE DE CAUMARTIN,PARIS PA4 (FRA001T1),48.8722978,2.3279534
Verizon,75008,PARIS,37-39 RUE DE SURENE,PARIS PA4 (FRA001T1),48.8715625,2.3187517
Verizon,75013,PARIS,37-49 QUAI D AUSTERLITZ,PARIS PA4 (FRA001T1),48.8406271,2.3695903
Verizon,75001,PARIS,374 RUE DU FABOURG SAINT HONORE,PARIS PA4 (FRA001T1),48.877757,2.2983627
Verizon,75004,PARIS,38 RUE DU TEMPLE,PARIS PA4 (FRA001T1),48.8596533,2.3546035
Verizon,75001,PARIS,39 RUE CAMBON,PARIS PA4 (FRA001T1),48.8688526,2.3273369
Verizon,75008,PARIS,39 RUE DU COLISEE,PARIS PA4 (FRA001T1),48.8718904,2.3107963
Verizon,75001,PARIS,39-41 RUE CAMBON,PARIS PA4 (FRA001T1),48.8688433,2.3267224
Verizon,75011,PARIS,3BIS 3TER BOULEVARD DE CHARONNE,PARIS PA4 (FRA001T1),48.8489428,2.3985035
Verizon,75009,PARIS,4 RUE CHARRAS,PARIS PA4 (FRA001T1),48.8739381,2.3298064
Verizon,75009,PARIS,4 RUE CONDORCET,PARIS PA4 (FRA001T1),48.8796107,2.3487112
Verizon,75116,PARIS,4 RUE GOETHE,PARIS PA4 (FRA001T1),48.8663721,2.2984501
Verizon,75002,PARIS,4-12 RUE GAILLON,PARIS PA4 (FRA001T1),48.8682869,2.3343332
Verizon,75001,PARIS,4-8 RUE SAINTE ANNE,PARIS PA4 (FRA001T1),48.8652748,2.3353203
Verizon,75009,PARIS,40 BOULEVARD HAUSSMANN,PARIS PA4 (FRA001T1),48.8736475,2.3322383
Verizon,75006,PARIS,40 RUE DU CHERCHE MIDI,PARIS PA4 (FRA001T1),48.8497745,2.326351
Verizon,75008,PARIS,40-44 RUE DE COURCELLES,PARIS PA4 (FRA001T1),48.8761228,2.3085879
Verizon,75008,PARIS,42 AVENUE DE FRIEDLAND,PARIS PA4 (FRA001T1),48.8742566,2.2976979
Verizon,75008,PARIS,42-44 RUE WASHINGTON,PARIS PA4 (FRA001T1),48.8743638,2.3052039
Verizon,75116,PARIS,45 AVENUE KLEBER,PARIS PA4 (FRA001T1),48.8683454,2.2914488
Verizon,75007,PARIS,45 RUE SAINT DOMINIQUE,PARIS PA4 (FRA001T1),48.8598465,2.317176
Verizon,75007,PARIS,45-47 RUE SAINT DOMINIQUE,PARIS PA4 (FRA001T1),48.8598664,2.317155
Verizon,75009,PARIS,46 RUE D AMSTERDAM,PARIS PA4 (FRA001T1),48.8785888,2.3270623
Verizon,75016,PARIS,46-50 AVENUE THEOPHILE GAUTIER,PARIS PA4 (FRA001T1),48.8490186,2.2705005
Verizon,75009,PARIS,47 RUE DE LA VICTOIRE,PARIS PA4 (FRA001T1),48.8749764,2.3359398
Verizon,75008,PARIS,47 RUE DE MONCEAU,PARIS PA4 (FRA001T1),48.8779007,2.3110352
Verizon,75017,PARIS,47 RUE DES ACACIAS,PARIS PA4 (FRA001T1),48.8778871,2.2934802
Verizon,75116,PARIS,48 AVENUE VICTOR HUGO,PARIS PA4 (FRA001T1),48.8712065,2.2883554
Verizon,75017,PARIS,48-50 RUE AMPERE,PARIS PA4 (FRA001T1),48.8855864,2.3006645
Verizon,75008,PARIS,49 RUE DE LISBONNE,PARIS PA4 (FRA001T1),48.8772329,2.3083758
Verizon,75798,PARIS,5 AVENUE KLEBER,PARIS PA4 (FRA001T1),48.8716559,2.2938262
Verizon,75001,PARIS,5 BOULEVARD DE LA MADELEINE,PARIS PA4 (FRA001T1),48.8695813,2.3272826
Verizon,75002,PARIS,5 BOULEVARD MONTMARTRE,PARIS PA4 (FRA001T1),48.8713268,2.3422502
Verizon,75009,PARIS,5 CITE ROUGEMONT,PARIS PA4 (FRA001T1),48.8718374,2.3453128
Verizon,75009,PARIS,5 RUE SCRIBE,PARIS PA4 (FRA001T1),48.870495,2.330228
Verizon,75008,PARIS,5-7 AVENUE PERCIER,PARIS PA4 (FRA001T1),48.8742592,2.3137858
Verizon,75008,PARIS,50 RUE D ANJOU,PARIS PA4 (FRA001T1),48.8726717,2.3225389
Verizon,75009,PARIS,50 RUE DE CAUMARTIN,PARIS PA4 (FRA001T1),48.8742792,2.328468
Verizon,75009,PARIS,50 RUE TAITBOUT,PARIS PA4 (FRA001T1),48.8746307,2.3352558
Verizon,75008,PARIS,52 AVENUE DES CHAMPS ELYSEES,PARIS PA4 (FRA001T1),48.8702249,2.3062797
Verizon,75009,PARIS,52 RUE D AMSTERDAM,PARIS PA4 (FRA001T1),48.8790097,2.3275703
Verizon,75015,PARIS,53 BOULEVARD DU GENERAL VALIN,PARIS PA4 (FRA001T1),48.8370327,2.2751235
Verizon,75007,PARIS,53 QUAI D ORSAY,PARIS PA4 (FRA001T1),48.8620583,2.3089003
Verizon,75007,PARIS,56 RUE DE LILLE,PARIS PA4 (FRA001T1),48.8590881,2.3280573
Verizon,75017,PARIS,58 RUE DE PRONY,PARIS PA4 (FRA001T1),48.8827208,2.3036259
Verizon,75008,PARIS,59 BOULEVARD HAUSSMANN,PARIS PA4 (FRA001T1),48.8735071,2.3259428
Verizon,75009,PARIS,6 AVENUE DE PROVENCE,PARIS PA4 (FRA001T1),48.8747139,2.3343182
Verizon,75009,PARIS,6 RUE ROUGEMONT,PARIS PA4 (FRA001T1),48.8716081,2.3460025
Verizon,75008,PARIS,60 AVENUE MONTAIGNE,PARIS PA4 (FRA001T1),48.8682143,2.3093725
Verizon,75008,PARIS,61 RUE DE MONCEAU,PARIS PA4 (FRA001T1),48.878716,2.3123
Verizon,75009,PARIS,61 RUE LA FAYETTE,PARIS PA4 (FRA001T1),48.8762512,2.3434194
Verizon,75008,PARIS,63 BOULEVARD HAUSSMANN,PARIS PA4 (FRA001T1),48.8737018,2.3254242
Verizon,75116,PARIS,64 AVENUE KLEBER,PARIS PA4 (FRA001T1),48.8683133,2.2905488
Verizon,75008,PARIS,64 RUE LA BOETIE,PARIS PA4 (FRA001T1),48.8733848,2.3118534
Verizon,75116,PARIS,66 AVENUE D IENA,PARIS PA4 (FRA001T1),48.8690815,2.2961615
Verizon,75008,PARIS,66 AVENUE MARCEAU,PARIS PA4 (FRA001T1),48.8708272,2.2981633
Verizon,75009,PARIS,66 RUE DE LA VICTOIRE,PARIS PA4 (FRA001T1),48.8753297,2.3333568
Verizon,75012,PARIS,68-76 QUAI DE LA RAPEE,PARIS PA4 (FRA001T1),48.8441549,2.3700219
Verizon,75008,PARIS,69 RUE DE MONCEAU,PARIS PA4 (FRA001T1),48.8792273,2.3133012
Verizon,75008,PARIS,7 AVENUE GEORGE V,PARIS PA4 (FRA001T1),48.8657442,2.3008208
Verizon,75009,PARIS,7 BOULEVARD HAUSSMANN,PARIS PA4 (FRA001T1),48.8724287,2.3367361
Verizon,75007,PARIS,7 PL FONTENOY,PARIS PA4 (FRA001T1),48.8498879,2.3065032
Verizon,75015,PARIS,7 PLACE DES INSURGES DE VARSOVIE,PARIS PA4 (FRA001T1),48.8275668,2.2921723
Verizon,75116,PARIS,7 PLACE DU CHANCELIER ADENAUER,PARIS PA4 (FRA001T1),48.8708346,2.2789683
Verizon,75116,PARIS,7 RUE LEONCE REYNAUD,PARIS PA4 (FRA001T1),48.8656006,2.2988645
Verizon,75017,PARIS,73 RUE DE SAUSSURE,PARIS PA4 (FRA001T1),48.8858979,2.3132349
Verizon,75014,PARIS,74 AVENUE DU MAINE,PARIS PA4 (FRA001T1),48.8391175,2.3219792
Verizon,75012,PARIS,74 RUE DU FAUBOURG SAINT ANTOINE,PARIS PA4 (FRA001T1),48.8516665,2.3740219
Verizon,75116,PARIS,75 AVENUE DE LA GRANDE ARMEE,PARIS PA4 (FRA001T1),48.8764029,2.2856823
Verizon,75007,PARIS,76 RUE DE LILLE,PARIS PA4 (FRA001T1),48.8610511,2.3229955
Verizon,75116,PARIS,77 AVENUE MARCEAU,PARIS PA4 (FRA001T1),48.8715646,2.2964198
Verizon,75008,PARIS,79 AVENUE DES CHAMPS ELYSEES,PARIS PA4 (FRA001T1),48.8709962,2.3025042
Verizon,75116,PARIS,8 RUE BELLINI,PARIS PA4 (FRA001T1),48.8608541,2.2823396
Verizon,75116,PARIS,8 RUE DE PRESBOURG,PARIS PA4 (FRA001T1),48.8726386,2.2937264
Verizon,75018,PARIS,8 RUE DE SOFIA,PARIS PA4 (FRA001T1),48.8848154,2.3484048
Verizon,75017,PARIS,81 BOULEVARD GOUVION SAINT CYR,PARIS PA4 (FRA001T1),48.8794646,2.2849548
Verizon,75007,PARIS,84 RUE DE LILLE,PARIS PA4 (FRA001T1),48.861247,2.3213994
Verizon,75002,PARIS,87 RUE DE RICHELIEU,PARIS PA4 (FRA001T1),48.8703114,2.3390253
Verizon,75116,PARIS,89 AVENUE DE LA GRANDE ARMEE,PARIS PA4 (FRA001T1),48.8769007,2.2839442
Verizon,75008,PARIS,89-91 RUE DU FAUBOURG SAINT HONORE,PARIS PA4 (FRA001T1),48.8717524,2.3130014
Verizon,75008,PARIS,9 AVENUE MATIGNON 12 RUE JEAN MERMOZ,PARIS PA4 (FRA001T1),48.8704417,2.3113831
Verizon,75015,PARIS,90 BOULEVARD PASTEUR,PARIS PA4 (FRA001T1),48.8390147,2.3152956
Verizon,75116,PARIS,91 RUE LAURISTON,PARIS PA4 (FRA001T1),48.8674372,2.2882575
Verizon,75008,PARIS,92-96 BOULEVARD HAUSSMANN,PARIS PA4 (FRA001T1),48.8746951,2.3232712
Verizon,75002,PARIS,93 RUE DE RICHELIEU,PARIS PA4 (FRA001T1),48.870971,2.3395677
Verizon,75009,PARIS,98 RUE DE LA VICTOIRE,PARIS PA4 (FRA001T1),48.8749479,2.3302404
Verizon,75004,PARIS,99 RUE DE LA VERRERIE,PARIS PA4 (FRA001T1),48.8588125,2.3503275
Verizon,75008,PARIS,"AVENUE HOCHE HALL CENTRAL, 63-65 RUE DE COURCELLES",PARIS PA4 (FRA001T1),48.877655,2.3056235
Verizon,75008,PARIS,"AVENUE HOCHE, 63-65 RUE DE COURCELLES",PARIS PA4 (FRA001T1),48.877655,2.3056235
Verizon,75015,PARIS,"ESPLANADE HENRI DE FRANCE, 3-15 BD DU GENERAL MARTIAL VALIN",PARIS PA4 (FRA001T1),48.8380201,2.271939
Verizon,75015,PARIS,PARC DES EXPOS DE VERSAILLES,PARIS PA4 (FRA001T1),48.8327872,2.2863048
Verizon,75014,PARIS,10 PLACE DE CATALOGNE,PARIS PA4 (FRA001T1),48.8369433,2.3191197
Verizon,75002,PARIS,100 RUE REAUMUR,PARIS PA4 (FRA001T1),48.8673143,2.3485277
Verizon,75002,PARIS,11-19 RUE REAUMUR,PARIS PA4 (FRA001T1),48.8649682,2.3574917
Verizon,75116,PARIS,112 AVENUE KLEBER,PARIS PA4 (FRA001T1),48.8641486,2.2877197
Verizon,75001,PARIS,124 RUE DE RIVOLI,PARIS PA4 (FRA001T1),48.8595134,2.3452693
Verizon,75011,PARIS,137 BOULEVARD VOLTAIRE,PARIS PA4 (FRA001T1),48.8561319,2.3835444
Verizon,75009,PARIS,2-4 PILLET WILL,PARIS PA4 (FRA001T1),48.8731849,2.3366249
Verizon,75009,PARIS,20 BOULEVARD DES CAPUCINES SQUARE EDOUARD VII,PARIS PA4 (FRA001T1),48.870616,2.3291903
Verizon,75001,PARIS,21-23 BOULEVARD DE LA MADELEINE,PARIS PA4 (FRA001T1),48.8691238,2.3258695
Verizon,75008,PARIS,21-25 RUE BALZAC,PARIS PA4 (FRA001T1),48.8755529,2.3024509
Verizon,75009,PARIS,23-25 5-7 VIVIENNE RUE DES FILLES SAINT THOMAS 17 PLACE DE LA BOURSE,PARIS PA4 (FRA001T1),48.8688458,2.3401816
Verizon,75116,PARIS,28-32 AVENUE VICTOR HUGO,PARIS PA4 (FRA001T1),48.8720236,2.2901516
Verizon,75017,PARIS,3 PLACE DU GENERAL KOENIG,PARIS PA4 (FRA001T1),48.8802782,2.2843852
Verizon,75002,PARIS,32 RUE DES JEUNEURS,PARIS PA4 (FRA001T1),48.8696502,2.3447758
Verizon,75015,PARIS,33 AVENUE DU MAINE,PARIS PA4 (FRA001T1),48.8421474,2.3219837
Verizon,75008,PARIS,40 RUE LA BOETIE,PARIS PA4 (FRA001T1),48.8737305,2.3142383
Verizon,75008,PARIS,40-44 RUE LA BOETIE,PARIS PA4 (FRA001T1),48.8739046,2.3138633
Verizon,75017,PARIS,43 RUE BAYEN,PARIS PA4 (FRA001T1),48.8812825,2.2922463
Verizon,75008,PARIS,5 RUE DE MARIGNAN,PARIS PA4 (FRA001T1),48.8678746,2.3059444
Verizon,75009,PARIS,53 RUE DE CHATEAUDUN,PARIS PA4 (FRA001T1),48.8761275,2.3336328
Verizon,75008,PARIS,68 RUE DU FAUBOURG SAINT HONORE,PARIS PA4 (FRA001T1),48.8701215,2.318379
Verizon,75008,PARIS,69 BOULEVARD HAUSSMANN,PARIS PA4 (FRA001T1),48.8736181,2.3247129
Verizon,75001,PARIS,"RUE DE, 1 168 RUE MARENGO 151 RUE SAINT HONORE",PARIS PA4 (FRA001T1),48.8623543,2.3385552
Verizon,75002,PARIS,38 RUE DES JEUNEURS,PARIS PA4 (FRA001T1),48.8698686,2.344236
Verizon,78370,PLAISIR,240 AVENUE DE DREUX,PARIS PA4 (FRA001T1),48.7948716,1.952636
Verizon,92800,PUTEAUX,10 PASSAGE DE L ARCHE,PARIS PA4 (FRA001T1),48.8917029,2.2357667
Verizon,92800,PUTEAUX,10-12 COURS MICHELET,PARIS PA4 (FRA001T1),48.8879087,2.2468553
Verizon,92800,PUTEAUX,12 ESPLANADE DU GENERAL DE GAULLE TOUR OPUS,PARIS PA4 (FRA001T1),48.884748,2.23964
Verizon,92800,PUTEAUX,13 ESPLANADE CHARLES DE GAULLE,PARIS PA4 (FRA001T1),48.8954117,2.2229259
Verizon,92800,PUTEAUX,17 COURS VALMY,PARIS PA4 (FRA001T1),48.8922403,2.2315307
Verizon,92800,PUTEAUX,19 PARVIS DE LA DEFENSE CITI CENTER BUILDING,PARIS PA4 (FRA001T1),48.884748,2.23964
Verizon,92800,PUTEAUX,23-25 RUE DELARIVIERE LEFOULLON,PARIS PA4 (FRA001T1),48.8878813,2.2441568
Verizon,92800,PUTEAUX,24 COURS MICHELET,PARIS PA4 (FRA001T1),48.8882604,2.2451419
Verizon,92800,PUTEAUX,31 PLACE RONDE,PARIS PA4 (FRA001T1),48.8925023,2.2313892
Verizon,92800,PUTEAUX,41 RUE DELARIVIERE LEFOULLON,PARIS PA4 (FRA001T1),48.8875282,2.2431282
Verizon,92800,PUTEAUX,5 PLACE DE LA PYRAMIDE TOUR ARIANE,PARIS PA4 (FRA001T1),48.8893213,2.2436666
Verizon,92800,PUTEAUX,7 PLACE DU DOME,PARIS PA4 (FRA001T1),48.8912607,2.2362205
Verizon,92800,PUTEAUX,7 RUE AMPERE,PARIS PA4 (FRA001T1),48.8761336,2.2348661
Verizon,92800,PUTEAUX,"TOUR KUPKA, 18 RUE HOCHE",PARIS PA4 (FRA001T1),48.8907818,2.2316281
Verizon,92800,PUTEAUX,"TOUR MICHELET, 10-12 COURS MICHELET",PARIS PA4 (FRA001T1),48.8882604,2.2451419
Verizon,92800,PUTEAUX,"TOUR SOCIETE GENERALE VALMY, 17 COURS VALMY LA DEFENSE",PARIS PA4 (FRA001T1),48.884748,2.23964
Verizon,92800,PUTEAUX,"TOUR SOCIETE GENERALE VALMY, 2-17 COURS VALMY LA DEFENSE",PARIS PA4 (FRA001T1),48.884748,2.23964
Verizon,92800,PUTEAUX,1 AVENUE DU GENERAL DE GAULLE TOUR SCOR,PARIS PA4 (FRA001T1),48.884748,2.23964
Verizon,92800,PUTEAUX,100-101 TERRASSE BOIELDIEU,PARIS PA4 (FRA001T1),48.8894171,2.2407359
Verizon,92800,PUTEAUX,2 PLACE DE LA DEFENSE,PARIS PA4 (FRA001T1),48.8928308,2.2391601
Verizon,63203,RIOM,20 RUE HENRI GOUDIER,LYON (LYON),45.8802824,3.1268103
Verizon,95700,ROISSY-EN-FRANCE,167 RUE DE LA BELLE ETOILE,PARIS PA4 (FRA001T1),48.9826912,2.5069204
Verizon,59100,ROUBAIX,"EUROTELEPORT DE ROUBAIX, 84 BOULEVARD DU GENERAL LECLERC",LILLE (FRL02M1),50.6905749,3.1790422
Verizon,92500,RUEIL-MALMAISON,1 AVENUE EDOUARD BELIN,PARIS PA4 (FRA001T1),48.8883299,2.1680724
Verizon,92500,RUEIL-MALMAISON,1 COURS FERDINAND DE LESSEPS,PARIS PA4 (FRA001T1),48.8885571,2.1665055
Verizon,92500,RUEIL-MALMAISON,1 PLACE RENAULT,PARIS PA4 (FRA001T1),48.8884025,2.1728546
Verizon,92500,RUEIL-MALMAISON,1 RUE EUGENE ET ARMAND PEUGEOT,PARIS PA4 (FRA001T1),48.8898634,2.1727218
Verizon,92500,RUEIL-MALMAISON,15 RUE MANET,PARIS PA4 (FRA001T1),48.8738799,2.1608472
Verizon,92500,RUEIL-MALMAISON,17 RUE DES DEUX GARES,PARIS PA4 (FRA001T1),48.887907,2.1712548
Verizon,92565,RUEIL-MALMAISON,2 RUE JACQUES DAGUERRE,PARIS PA4 (FRA001T1),48.8895555,2.1702641
Verizon,92500,RUEIL-MALMAISON,23 RUE FRANCOIS JACOB,PARIS PA4 (FRA001T1),48.890766,2.176076
Verizon,92500,RUEIL-MALMAISON,274 AVENUE NAPOLEON BONAPARTE,PARIS PA4 (FRA001T1),48.8745601,2.1666702
Verizon,92500,RUEIL-MALMAISON,4 RUE LOUIS BLERIOT,PARIS PA4 (FRA001T1),48.890152,2.1660664
Verizon,92500,RUEIL-MALMAISON,43 BOULEVARD FRANKLIN ROOSEVELT,PARIS PA4 (FRA001T1),48.8797099,2.1687765
Verizon,92500,RUEIL-MALMAISON,7 RUE EUGENE ET ARMAND PEUGEOT,PARIS PA4 (FRA001T1),48.8899745,2.1724
Verizon,92500,RUEIL-MALMAISON,8 RUE ARMAND PEUGEOT,PARIS PA4 (FRA001T1),48.8902437,2.173517
Verizon,92500,RUEIL-MALMAISON,4-6 RUE SAINTE CLAIRE DEVILLE,PARIS PA4 (FRA001T1),48.8925378,2.1749403
Verizon,92500,RUEIL-MALMAISON,"IMMEUBLE L' EUROPEEN, 2-4 RUE JOSEPH MONIER 4 RUE AUGUSTE PERRET",PARIS PA4 (FRA001T1),48.8896432,2.1679905
Verizon,21850,ST APOLLINAIRE,36 RUE DU DOCTEUR SCHMITT,DIJON (DATA) (FRA250),47.3232689,5.0747543
Verizon,93200,SAINT-DENIS,11-13 AVENUE ARTS ET METIERS,PARIS PA4 (FRA001T1),48.9141703,2.3622791
Verizon,93200,SAINT-DENIS,114 RUE AMBROISE CROIZAT,PARIS PA4 (FRA001T1),48.927166,2.3506638
Verizon,93200,SAINT-DENIS,114 RUE AMBROISE CROIZAT BUILDING DRT DATA CENTER,PARIS PA4 (FRA001T1),48.936181,2.357443
Verizon,93200,SAINT-DENIS,114 RUE AMBROISE CROIZAT BUILDING EQUINIX DATA CENTER,PARIS PA4 (FRA001T1),48.936181,2.357443
Verizon,93200,SAINT-DENIS,7-9 AVENUE DES ARTS METIERS,PARIS PA4 (FRA001T1),48.9147264,2.3623984
Verizon,93200,SAINT-DENIS,"BUILDING PAA, 114 RUE AMBROISE CROIZAT",PARIS PA4 (FRA001T1),48.927166,2.3506638
Verizon,93200,SAINT-DENIS,11-17 AVENUE FRANCOIS MITTERAND,LILLE (FRL02M1),48.9180257,2.3526943
Verizon,93210,SAINT-DENIS,361 AVENUE DU PRESIDENT WILSON,PARIS PA4 (FRA001T1),48.9247617,2.3565181
Verizon,93200,SAINT-DENIS,5 RUE PLEYEL,PARIS PA4 (FRA001T1),48.919344,2.3455395
Verizon,93210,SAINT-DENIS,14 RUE DE LA MONTJOIE,PARIS PA4 (FRA001T1),48.911058,2.3630561
Verizon,67000,STRASBOURG,15 RUE DE LA NUEE BLEUE,STRASBOURG (STR1) (FRS02),48.585538,7.7475023
Verizon,67100,STRASBOURG,230 AVENUE DE COLMAR,STRASBOURG (STR1) (FRS02),48.5546106,7.7450502
Verizon,67000,STRASBOURG,AVENUE DE L EUROPE,STRASBOURG (STR1) (FRS02),48.5948369,7.773352
Verizon,67000,STRASBOURG,RUE RENE CASSIN,STRASBOURG (STR1) (FRS02),48.598296,7.775617
Verizon,67000,STRASBOURG,52 QUAI JACOUTOT,STRASBOURG (STR1) (FRS02),48.5902796,7.7926361
Verizon,67000,STRASBOURG,34 PL WACKEN,STRASBOURG (STR1) (FRS02),48.6007119,7.7572773
Verizon,67000,STRASBOURG,"QUAI KLEBER, 3 PLACE DES HALLES",STRASBOURG (STR1) (FRS02),48.5880046,7.7407618
Verizon,92150,SURESNES,1 RUE SALOMON DE ROTHSCHILD,PARIS PA4 (FRA001T1),48.8729237,2.2310586
Verizon,92150,SURESNES,2 RUE DU BAC,PARIS PA4 (FRA001T1),48.8698125,2.2287008
Verizon,92150,SURESNES,3 RUE SALOMON DE ROTHSCHILD,PARIS PA4 (FRA001T1),48.8733168,2.2321958
Verizon,92150,SURESNES,1 RUE SALOMON DE ROTHSCHILD,PARIS PA4 (FRA001T1),48.8729237,2.2310586
Verizon,31000,TOULOUSE,135 RUE DE PERIOLE BATIMENT LE PLATEAU BOEING,TOULOUSE (TOU) (FRA258),43.6046256,1.444205
Verizon,31000,TOULOUSE,2 RUE DE LA GRECE,TOULOUSE (TOU) (FRA258),43.6140474,1.4368865
Verizon,31300,TOULOUSE,316 ROUTE DE BAYONNE,TOULOUSE (TOU) (FRA258),43.6119056,1.3726646
Verizon,31500,TOULOUSE,32 RUE DE LA CARAVELLE,TOULOUSE (TOU) (FRA258),43.6169153,1.4624226
Verizon,6560,VALBONNE,22-29 ROUTE DES CRETES,MARSEILLES (MRS1) (MARS),43.6211127,7.0351717
Verizon,78140,VELIZY-VILLACOUBLAY,1 RUE DU PETIT CLAMART,PARIS PA4 (FRA001T1),48.7821274,2.2259692
Verizon,78140,VELIZY-VILLACOUBLAY,10 RUE MARCEL DASSAULT,PARIS PA4 (FRA001T1),48.7862582,2.2110596
Verizon,78140,VELIZY-VILLACOUBLAY,11 AVENUE MORANE SAULNIER,PARIS PA4 (FRA001T1),48.7823616,2.2102525
Verizon,78140,VELIZY-VILLACOUBLAY,13 AVENUE MORANE SAULNIER,PARIS PA4 (FRA001T1),48.7830697,2.2114149
Verizon,78140,VELIZY-VILLACOUBLAY,20 RUE GRANGE DAME ROSE,PARIS PA4 (FRA001T1),48.7854283,2.2075056
Verizon,78140,VELIZY-VILLACOUBLAY,2 RUE GRANGE DAME ROSE,PARIS PA4 (FRA001T1),48.7803181,2.2039661
Verizon,78140,VELIZY-VILLACOUBLAY,6 RUE NIEUPORT,PARIS PA4 (FRA001T1),48.7824136,2.2087822
Verizon,78140,VELIZY-VILLACOUBLAY,8 RUE GRANGE DAME ROSE,PARIS PA4 (FRA001T1),48.7810436,2.2049276
Verizon,78140,VELIZY-VILLACOUBLAY,"CRYSTALYS, 6 AVENUE MORANE SAULNIER",PARIS PA4 (FRA001T1),48.7818235,2.2110253
Verizon,69200,VENISSIEUX,6-8 RUE GEORGES MARRANE,LYON (LYON),45.7229263,4.8629042
Verizon,59650,VILLENEUVE D ASCQ,13 RUE DENIS PAPIN,LILLE (FRL02M1),50.6472662,3.128616
Verizon,69100,VILLEURBANNE,3 RUE PASCAL,LYON (LYON),45.7617106,4.8761241
Verizon,94300,VINCENNES,64BIS AVENUE AUBERT,PARIS PA4 (FRA001T1),48.8477245,2.4280752